ATLAS CENTAUR 2         
1 00694U 63047A   26061.83055835  .00001644  00000+0  19060-3 0  9994
2 00694  30.3525 233.9767 0547844  19.8376 342.2678 14.12043289130653
THOR AGENA D R/B        
1 00733U 64002A   26061.61458529  .00000267  00000+0  11255-3 0  9991
2 00733  99.1228  74.5665 0031901 279.3265  80.4311 14.34015098237281
SL-3 R/B                
1 00877U 64053B   26061.50630167  .00000468  00000+0  11473-3 0  9999
2 00877  65.0787 352.2960 0079444 294.5017  64.7814 14.61360281265746
SL-8 R/B                
1 02802U 67045B   26061.79321223  .00000558  00000+0  16170-3 0  9993
2 02802  74.0135   0.9671 0063909   8.8833 351.3439 14.45614640 88025
SL-8 R/B                
1 03230U 68040B   26061.78827480  .00003825  00000+0  28396-3 0  9993
2 03230  74.0332 327.7949 0024233 153.7986 206.4435 15.03199150 88973
OAO 2                   
1 03597U 68110A   26061.81533170  .00000339  00000+0  96505-4 0  9996
2 03597  34.9936 303.6053 0005173 149.5560 210.5432 14.47302890 18101
ISIS 1                  
1 03669U 69009A   26061.72786427  .00000194  00000+0  12134-3 0  9993
2 03669  88.4549 156.0675 1707832 103.2065 276.4365 11.30411589347740
SERT 2                  
1 04327U 70009A   26061.77019455  .00000000  00000+0  56135-4 0  9998
2 04327  99.2750   5.2427 0004781 172.5871 216.8800 13.58729129778959
SL-3 R/B                
1 05118U 71028B   26061.79639448  .00044536  00000+0  53722-3 0  9991
2 05118  81.2332  60.5394 0014253 315.0547  44.9551 15.60445629987591
ASTEX 1                 
1 05560U 71089A   26061.78696816  .00000610  00000+0  15512-3 0  9990
2 05560  92.7131 149.5275 0017839 106.2185 254.0985 14.50760914861303
SL-8 R/B                
1 05730U 71119B   26061.76866140  .00017064  00000+0  88580-3 0  9996
2 05730  73.8872 188.6520 0550082 156.7309 205.9819 14.37638852654492
OAO 3 (COPERNICUS)      
1 06153U 72065A   26061.82303159  .00000489  00000+0  10481-3 0  9998
2 06153  35.0068 336.4374 0005946 107.0167 282.8288 14.59991185845192
ATLAS CENTAUR R/B       
1 06155U 72065B   26061.46376344  .00001728  00000+0  23839-3 0  9994
2 06155  35.0029 348.0992 0034291 308.4806  51.2821 14.77663257840190
SL-8 R/B                
1 08459U 75112B   26061.61670091  .00000263  00000+0  95190-4 0  9995
2 08459  74.0613  31.9223 0014599 128.0023 232.2452 14.38198646630855
SL-3 R/B                
1 10114U 77057B   26061.79061211  .00015064  00000+0  31826-3 0  9993
2 10114  97.5755 233.4093 0006440 313.8244  46.2472 15.45259759667264
SEASAT 1                
1 10967U 78064A   26061.78639686  .00000292  00000+0  12011-3 0  9996
2 10967 108.0127 111.0138 0002146 288.3510  71.7402 14.46154031505515
SL-14 R/B               
1 11267U 79011B   26061.60519078  .00000660  00000+0  62542-4 0  9990
2 11267  82.5216 103.2948 0017629  82.2454 278.0767 14.91898251527728
