[{"OBJECT_NAME":"ATLAS CENTAUR 2","OBJECT_ID":"1963-047A","EPOCH":"2026-03-02T19:56:00.241440","MEAN_MOTION":14.12043289,"ECCENTRICITY":0.0547844,"INCLINATION":30.3525,"RA_OF_ASC_NODE":233.9767,"ARG_OF_PERICENTER":19.8376,"MEAN_ANOMALY":342.2678,"EPHEMERIS_TYPE":0,"CLASSIFICATION_TYPE":"U","NORAD_CAT_ID":694,"ELEMENT_SET_NO":999,"REV_AT_EPOCH":13065,"BSTAR":0.0001906,"MEAN_MOTION_DOT":1.644e-5,"MEAN_MOTION_DDOT":0},{"OBJECT_NAME":"THOR AGENA D R/B","OBJECT_ID":"1964-002A","EPOCH":"2026-03-02T14:45:00.169056","MEAN_MOTION":14.34015098,"ECCENTRICITY":0.0031901,"INCLINATION":99.1228,"RA_OF_ASC_NODE":74.5665,"ARG_OF_PERICENTER":279.3265,"MEAN_ANOMALY":80.4311,"EPHEMERIS_TYPE":0,"CLASSIFICATION_TYPE":"U","NORAD_CAT_ID":733,"ELEMENT_SET_NO":999,"REV_AT_EPOCH":23728,"BSTAR":0.00011255,"MEAN_MOTION_DOT":2.67e-6,"MEAN_MOTION_DDOT":0},{"OBJECT_NAME":"SL-3 R/B","OBJECT_ID":"1964-053B","EPOCH":"2026-03-02T12:09:04.464288","MEAN_MOTION":14.61360281,"ECCENTRICITY":0.00794447,"INCLINATION":65.0787,"RA_OF_ASC_NODE":352.296,"ARG_OF_PERICENTER":294.5017,"MEAN_ANOMALY":64.7814,"EPHEMERIS_TYPE":0,"CLASSIFICATION_TYPE":"U","NORAD_CAT_ID":877,"ELEMENT_SET_NO":999,"REV_AT_EPOCH":26574,"BSTAR":0.00011473408,"MEAN_MOTION_DOT":4.68e-6,"MEAN_MOTION_DDOT":0},{"OBJECT_NAME":"SL-8 R/B","OBJECT_ID":"1967-045B","EPOCH":"2026-03-02T19:02:13.536672","MEAN_MOTION":14.4561464,"ECCENTRICITY":0.0063909,"INCLINATION":74.0135,"RA_OF_ASC_NODE":0.9671,"ARG_OF_PERICENTER":8.8833,"MEAN_ANOMALY":351.3439,"EPHEMERIS_TYPE":0,"CLASSIFICATION_TYPE":"U","NORAD_CAT_ID":2802,"ELEMENT_SET_NO":999,"REV_AT_EPOCH":8802,"BSTAR":0.0001617,"MEAN_MOTION_DOT":5.58e-6,"MEAN_MOTION_DDOT":0},{"OBJECT_NAME":"SL-8 R/B","OBJECT_ID":"1968-040B","EPOCH":"2026-03-02T18:55:06.942720","MEAN_MOTION":15.0319915,"ECCENTRICITY":0.0024233,"INCLINATION":74.0332,"RA_OF_ASC_NODE":327.7949,"ARG_OF_PERICENTER":153.7986,"MEAN_ANOMALY":206.4435,"EPHEMERIS_TYPE":0,"CLASSIFICATION_TYPE":"U","NORAD_CAT_ID":3230,"ELEMENT_SET_NO":999,"REV_AT_EPOCH":8897,"BSTAR":0.00028396,"MEAN_MOTION_DOT":3.825e-5,"MEAN_MOTION_DDOT":0},{"OBJECT_NAME":"OAO 2","OBJECT_ID":"1968-110A","EPOCH":"2026-03-02T19:34:04.658880","MEAN_MOTION":14.4730289,"ECCENTRICITY":0.0005173,"INCLINATION":34.9936,"RA_OF_ASC_NODE":303.6053,"ARG_OF_PERICENTER":149.556,"MEAN_ANOMALY":210.5432,"EPHEMERIS_TYPE":0,"CLASSIFICATION_TYPE":"U","NORAD_CAT_ID":3597,"ELEMENT_SET_NO":999,"REV_AT_EPOCH":1810,"BSTAR":9.6505e-5,"MEAN_MOTION_DOT":3.39e-6,"MEAN_MOTION_DDOT":0},{"OBJECT_NAME":"ISIS 1","OBJECT_ID":"1969-009A","EPOCH":"2026-03-02T17:28:07.472928","MEAN_MOTION":11.30411589,"ECCENTRICITY":0.1707832,"INCLINATION":88.4549,"RA_OF_ASC_NODE":156.0675,"ARG_OF_PERICENTER":103.2065,"MEAN_ANOMALY":276.4365,"EPHEMERIS_TYPE":0,"CLASSIFICATION_TYPE":"U","NORAD_CAT_ID":3669,"ELEMENT_SET_NO":999,"REV_AT_EPOCH":34774,"BSTAR":0.00012134,"MEAN_MOTION_DOT":1.94e-6,"MEAN_MOTION_DDOT":0},{"OBJECT_NAME":"SERT 2","OBJECT_ID":"1970-009A","EPOCH":"2026-03-02T18:29:04.809120","MEAN_MOTION":13.58729129,"ECCENTRICITY":0.0004781,"INCLINATION":99.275,"RA_OF_ASC_NODE":5.2427,"ARG_OF_PERICENTER":172.5871,"MEAN_ANOMALY":216.88,"EPHEMERIS_TYPE":0,"CLASSIFICATION_TYPE":"U","NORAD_CAT_ID":4327,"ELEMENT_SET_NO":999,"REV_AT_EPOCH":77895,"BSTAR":5.6135e-5,"MEAN_MOTION_DOT":0,"MEAN_MOTION_DDOT":0},{"OBJECT_NAME":"SL-3 R/B","OBJECT_ID":"1971-028B","EPOCH":"2026-03-02T19:06:48.483072","MEAN_MOTION":15.60445629,"ECCENTRICITY":0.0014253,"INCLINATION":81.2332,"RA_OF_ASC_NODE":60.5394,"ARG_OF_PERICENTER":315.0547,"MEAN_ANOMALY":44.9551,"EPHEMERIS_TYPE":0,"CLASSIFICATION_TYPE":"U","NORAD_CAT_ID":5118,"ELEMENT_SET_NO":999,"REV_AT_EPOCH":98759,"BSTAR":0.00053722,"MEAN_MOTION_DOT":0.00044536,"MEAN_MOTION_DDOT":0},{"OBJECT_NAME":"ASTEX 1","OBJECT_ID":"1971-089A","EPOCH":"2026-03-02T18:53:14.049024","MEAN_MOTION":14.50760914,"ECCENTRICITY":0.0017839,"INCLINATION":92.7131,"RA_OF_ASC_NODE":149.5275,"ARG_OF_PERICENTER":106.2185,"MEAN_ANOMALY":254.0985,"EPHEMERIS_TYPE":0,"CLASSIFICATION_TYPE":"U","NORAD_CAT_ID":5560,"ELEMENT_SET_NO":999,"REV_AT_EPOCH":86130,"BSTAR":0.00015512,"MEAN_MOTION_DOT":6.1e-6,"MEAN_MOTION_DDOT":0},{"OBJECT_NAME":"SL-8 R/B","OBJECT_ID":"1971-119B","EPOCH":"2026-03-02T18:26:52.344960","MEAN_MOTION":14.37638852,"ECCENTRICITY":0.0550082,"INCLINATION":73.8872,"RA_OF_ASC_NODE":188.652,"ARG_OF_PERICENTER":156.7309,"MEAN_ANOMALY":205.9819,"EPHEMERIS_TYPE":0,"CLASSIFICATION_TYPE":"U","NORAD_CAT_ID":5730,"ELEMENT_SET_NO":999,"REV_AT_EPOCH":65449,"BSTAR":0.0008858,"MEAN_MOTION_DOT":0.00017064,"MEAN_MOTION_DDOT":0},{"OBJECT_NAME":"OAO 3 (COPERNICUS)","OBJECT_ID":"1972-065A","EPOCH":"2026-03-02T19:45:09.929376","MEAN_MOTION":14.59991185,"ECCENTRICITY":0.0005946,"INCLINATION":35.0068,"RA_OF_ASC_NODE":336.4374,"ARG_OF_PERICENTER":107.0167,"MEAN_ANOMALY":282.8288,"EPHEMERIS_TYPE":0,"CLASSIFICATION_TYPE":"U","NORAD_CAT_ID":6153,"ELEMENT_SET_NO":999,"REV_AT_EPOCH":84519,"BSTAR":0.00010481,"MEAN_MOTION_DOT":4.89e-6,"MEAN_MOTION_DDOT":0},{"OBJECT_NAME":"ATLAS CENTAUR R/B","OBJECT_ID":"1972-065B","EPOCH":"2026-03-02T11:07:49.161216","MEAN_MOTION":14.77663257,"ECCENTRICITY":0.0034291,"INCLINATION":35.0029,"RA_OF_ASC_NODE":348.0992,"ARG_OF_PERICENTER":308.4806,"MEAN_ANOMALY":51.2821,"EPHEMERIS_TYPE":0,"CLASSIFICATION_TYPE":"U","NORAD_CAT_ID":6155,"ELEMENT_SET_NO":999,"REV_AT_EPOCH":84019,"BSTAR":0.0002383879,"MEAN_MOTION_DOT":1.728e-5,"MEAN_MOTION_DDOT":0},{"OBJECT_NAME":"SL-8 R/B","OBJECT_ID":"1975-112B","EPOCH":"2026-03-02T14:48:02.958624","MEAN_MOTION":14.38198646,"ECCENTRICITY":0.0014599,"INCLINATION":74.0613,"RA_OF_ASC_NODE":31.9223,"ARG_OF_PERICENTER":128.0023,"MEAN_ANOMALY":232.2452,"EPHEMERIS_TYPE":0,"CLASSIFICATION_TYPE":"U","NORAD_CAT_ID":8459,"ELEMENT_SET_NO":999,"REV_AT_EPOCH":63085,"BSTAR":9.519e-5,"MEAN_MOTION_DOT":2.63e-6,"MEAN_MOTION_DDOT":0},{"OBJECT_NAME":"SL-3 R/B","OBJECT_ID":"1977-057B","EPOCH":"2026-03-02T18:58:28.886304","MEAN_MOTION":15.45259759,"ECCENTRICITY":0.000644,"INCLINATION":97.5755,"RA_OF_ASC_NODE":233.4093,"ARG_OF_PERICENTER":313.8244,"MEAN_ANOMALY":46.2472,"EPHEMERIS_TYPE":0,"CLASSIFICATION_TYPE":"U","NORAD_CAT_ID":10114,"ELEMENT_SET_NO":999,"REV_AT_EPOCH":66726,"BSTAR":0.00031826,"MEAN_MOTION_DOT":0.00015064,"MEAN_MOTION_DDOT":0},{"OBJECT_NAME":"SEASAT 1","OBJECT_ID":"1978-064A","EPOCH":"2026-03-02T18:52:24.688704","MEAN_MOTION":14.46154031,"ECCENTRICITY":0.0002146,"INCLINATION":108.0127,"RA_OF_ASC_NODE":111.0138,"ARG_OF_PERICENTER":288.351,"MEAN_ANOMALY":71.7402,"EPHEMERIS_TYPE":0,"CLASSIFICATION_TYPE":"U","NORAD_CAT_ID":10967,"ELEMENT_SET_NO":999,"REV_AT_EPOCH":50551,"BSTAR":0.00012011,"MEAN_MOTION_DOT":2.92e-6,"MEAN_MOTION_DDOT":0},{"OBJECT_NAME":"SL-14 R/B","OBJECT_ID":"1979-011B","EPOCH":"2026-03-02T14:31:28.483392","MEAN_MOTION":14.91898251,"ECCENTRICITY":0.0017629,"INCLINATION":82.5216,"RA_OF_ASC_NODE":103.2948,"ARG_OF_PERICENTER":82.2454,"MEAN_ANOMALY":278.0767,"EPHEMERIS_TYPE":0,"CLASSIFICATION_TYPE":"U","NORAD_CAT_ID":11267,"ELEMENT_SET_NO":999,"REV_AT_EPOCH":52772,"BSTAR":6.2542e-5,"MEAN_MOTION_DOT":6.6e-6,"MEAN_MOTION_DDOT":0}]
